Skip Page Navigation
NASA Logo - Jet Propulsion Laboratory				+ View the NASA Portal
+ Center for Near-Earth Object Studies			
JPL Home	Earth	Solar System	Stars & Galaxies	Technology

JPL Solar System Dynamics
BODIES		ORBITS		EPHEMERIDES		TOOLS		PHYSICAL DATA		DISCOVERY		FAQ		SITE MAP

IMPORTANT: The SSD Announcement email list is now available. Major changes are coming in the near future, including possible hostname and/or URL changes. To be notified of such changes, subscribe to this email list.

Please visit this page for more details.


Don't show this message again
HORIZONS Web-Interface
This tool provides a web-based limited interface to JPL's HORIZONS system which can be used to generate ephemerides for solar-system bodies. Full access to HORIZONS features is available via the primary telnet interface. HORIZONS system news shows recent changes and improvements. A web-interface tutorial is available to assist new users.
Current Settings
Ephemeris Type [change] : 	ELEMENTS
Target Body [change] : 	Triton (NI) [801]
Center [change] : 	Neptune System Barycenter [500@8]
Time Span [change] : 	Start=JD 2458850.0, Stop=JD 2464329.0, Intervals=500
Table Settings [change] : 	CSV format=YES
Display/Output [change] : 	default (formatted HTML)
Object Data Page
 Revised: Mar 27, 2009             Triton / (Neptune)                       801

 SATELLITE PHYSICAL PROPERTIES:
  Radius (km)             = 1352.6 +- 2.4   Density (g cm^-3)   = 2.054 +-0.032
  Mass (10^20 kg )        =  214.7 +- 0.7   Geometric Albedo    =  0.7  
                                            V(1,0)              = -1.24

 SATELLITE ORBITAL DATA:
  Semi-major axis, a (km) = 354.76(10^3)    Orbital period      = 5.876854 d (R)
  Eccentricity, e         =                 Rotational period   = Synchronous
  Inclination, i  (deg)   = 156.834

 Fit to all reported measurements through 2008, as described in AJ (2009).
Results
*******************************************************************************
Ephemeris / WWW_USER Fri May 15 20:20:15 2020 Pasadena, USA      / Horizons    
*******************************************************************************
Target body name: Triton (801)                    {source: nep081xl}
Center body name: Neptune Barycenter (8)          {source: DE431mx}
Center-site name: BODY CENTER
*******************************************************************************
Start time      : A.D. 2020-Jan-01 12:00:00.0000 TDB
Stop  time      : A.D. 2035-Jan-01 12:00:00.0000 TDB
Step-size       : 500 steps
*******************************************************************************
Center geodetic : 0.00000000,0.00000000,0.0000000 {E-lon(deg),Lat(deg),Alt(km)}
Center cylindric: 0.00000000,0.00000000,0.0000000 {E-lon(deg),Dxy(km),Dz(km)}
Center radii    : (undefined)                                                  
Keplerian GM    : 1.5234026020225232E-08 au^3/d^2
Output units    : AU-D, deg, Julian Day Number (Tp)                            
Output type     : GEOMETRIC osculating elements
Output format   : 10
Reference frame : ICRF/J2000.0                                                 
Coordinate systm: Ecliptic and Mean Equinox of Reference Epoch                 
*******************************************************************************
            JDTDB,            Calendar Date (TDB),                     EC,                     QR,                     IN,                     OM,                      W,                     Tp,                      N,                     MA,                     TA,                      A,                     AD,                     PR,
**************************************************************************************************************************************************************************************************************************************************************************************************************************************************
$$SOE
2460526.574000000, A.D. 2024-Aug-04 01:46:33.6000,  2.416621605866739E-05,  2.370921536278541E-03,  1.291744405246412E+02,  2.222610847621162E+02,  1.720994811067901E+02,  2.460526340382699E+06,  6.125456548062236E+01,  1.431012624106036E+01,  1.431081073597284E+01,  2.370978833865311E-03,  2.371036131452081E-03,  5.877112949464715E+00,
2460537.532000000, A.D. 2024-Aug-15 00:46:04.8000,  2.446814300125870E-05,  2.370909873408210E-03,  1.291738109078425E+02,  2.222693255826456E+02,  1.257912939386449E+02,  2.460537338028356E+06,  6.125498971964318E+01,  1.188173106021291E+01,  1.188230836675169E+01,  2.370967886589510E-03,  2.371025899770811E-03,  5.877072245831356E+00,
2460548.490000000, A.D. 2024-Aug-25 23:45:36.0000,  2.292247358645666E-05,  2.370906778795660E-03,  1.291731501692828E+02,  2.222767997309509E+02,  9.218296075309949E+01,  2.460548543001798E+06,  6.125525167252545E+01,  3.567533615017946E+02,  3.567532127352076E+02,  2.370961127089469E-03,  2.371015475383279E-03,  5.877047113030951E+00,
2460559.448000000, A.D. 2024-Sep-05 22:45:07.2000,  2.544938839431546E-05,  2.370913488120193E-03,  1.291719052305212E+02,  2.222844146757790E+02,  5.409169325318472E+01,  2.460559674792245E+06,  6.125475947374848E+01,  3.461078955361318E+02,  3.461071953311612E+02,  2.370973827954013E-03,  2.371034167787834E-03,  5.877094336714890E+00,
2460570.406000000, A.D. 2024-Sep-16 21:44:38.4000,  2.167337783044903E-05,  2.370925903774509E-03,  1.291708454846252E+02,  2.222927598826440E+02,  4.683986243954318E+00,  2.460570621836807E+06,  6.125462527625884E+01,  3.467789972809538E+02,  3.467784292506054E+02,  2.370977290861161E-03,  2.371028677947814E-03,  5.877107212335348E+00,
2460581.364000000, A.D. 2024-Sep-27 20:44:09.6000,  1.270838746833209E-05,  2.370933560154010E-03,  1.291703240910139E+02,  2.223007747674631E+02,  3.096538815679930E+02,  2.460581477092626E+06,  6.125515230150822E+01,  3.530724939829613E+02,  3.530723183340140E+02,  2.370963691279271E-03,  2.370993822404534E-03,  5.877056647055893E+00,
2460592.322000000, A.D. 2024-Oct-08 19:43:40.8000,  1.267381451988201E-05,  2.370933706781768E-03,  1.291694799290975E+02,  2.223081454518962E+02,  2.475468992502266E+02,  2.460592216821239E+06,  6.125514979582012E+01,  6.442740775089727E+00,  6.442903741921893E+00,  2.370963755936643E-03,  2.370993805091519E-03,  5.877056887461329E+00,
2460603.280000000, A.D. 2024-Oct-19 18:43:12.0000,  2.156297701460189E-05,  2.370926213908804E-03,  1.291681835490285E+02,  2.223160139787743E+02,  1.920982362487249E+02,  2.460603065245531E+06,  6.125462340149635E+01,  1.315470414468752E+01,  1.315526649764811E+01,  2.370977339238672E-03,  2.371028464568540E-03,  5.877107392210427E+00,
2460614.238000000, A.D. 2024-Oct-30 17:42:43.2000,  2.531848681528613E-05,  2.370913721436845E-03,  1.291673296956901E+02,  2.223243975635398E+02,  1.424039440011095E+02,  2.460614007611142E+06,  6.125476245964168E+01,  1.411241472863349E+01,  1.411312215658376E+01,  2.370973750904498E-03,  2.371033780372150E-03,  5.877094050233068E+00,
2460625.196000000, A.D. 2024-Nov-10 16:42:14.4000,  2.289542293861182E-05,  2.370906814753500E-03,  1.291668153867602E+02,  2.223321496726189E+02,  1.041700940185400E+02,  2.460625137072543E+06,  6.125525276455212E+01,  3.609616270532066E+00,  3.609781453317542E+00,  2.370961098910631E-03,  2.371015383067762E-03,  5.877047008258023E+00,
2460636.154000000, A.D. 2024-Nov-21 15:41:45.6000,  2.457024377806648E-05,  2.370909715702673E-03,  1.291657726048623E+02,  2.223395509786905E+02,  7.062504285130105E+01,  2.460636343079817E+06,  6.125498644987698E+01,  3.484179183822265E+02,  3.484173530843387E+02,  2.370967970963709E-03,  2.371026226224745E-03,  5.877072559547076E+00,
2460647.112000000, A.D. 2024-Dec-02 14:41:16.8000,  2.429919348355844E-05,  2.370921226779729E-03,  1.291645298707325E+02,  2.223476750818801E+02,  2.456113440245544E+01,  2.460647344714564E+06,  6.125456525632215E+01,  3.457451705521044E+02,  3.457444848949123E+02,  2.370978839653300E-03,  2.371036452526870E-03,  5.877112970985359E+00,
2460658.070000000, A.D. 2024-Dec-13 13:40:48.0000,  1.586680575156135E-05,  2.370931526886928E-03,  1.291638698369250E+02,  2.223559623740516E+02,  3.317544980774269E+02,  2.460658236268597E+06,  6.125494089053409E+01,  3.498152269151727E+02,  3.498149054086458E+02,  2.370969146593820E-03,  2.371006766300712E-03,  5.877076930713876E+00,
2460669.028000000, A.D. 2024-Dec-24 12:40:19.2000,  1.107419211904427E-05,  2.370934536132270E-03,  1.291632606384097E+02,  2.223634847158767E+02,  2.713712480138943E+02,  2.460669004136184E+06,  6.125526463484784E+01,  1.461784334094361E+00,  1.461816707191210E+00,  2.370960792607595E-03,  2.370987049082920E-03,  5.877045869379815E+00,
2460679.986000000, A.D. 2025-Jan-04 11:39:50.4000,  1.799285318837840E-05,  2.370929991918562E-03,  1.291620578318999E+02,  2.223710427868512E+02,  2.127283649051991E+02,  2.460679800415738E+06,  6.125480502676258E+01,  1.136792779759398E+01,  1.136833421077641E+01,  2.370972652481411E-03,  2.371015313044261E-03,  5.877089966129414E+00,
2460690.944000000, A.D. 2025-Jan-15 10:39:21.6000,  2.505553504302077E-05,  2.370918523932379E-03,  1.291609606663822E+02,  2.223793566988613E+02,  1.607975837384782E+02,  2.460690706269382E+06,  6.125460050581313E+01,  1.456209403313339E+01,  1.456281594633626E+01,  2.370977930052991E-03,  2.371037336173604E-03,  5.877109588949740E+00,
2460701.902000000, A.D. 2025-Jan-26 09:38:52.8000,  2.380102560731540E-05,  2.370908269620949E-03,  1.291604319647360E+02,  2.223874387051123E+02,  1.171994326272455E+02,  2.460701748157422E+06,  6.125511317100782E+01,  9.423644564433681E+00,  9.424091142598151E+00,  2.370964701012511E-03,  2.371021132404074E-03,  5.877060401390112E+00,
